H1 CPF  1  DLR 2021 04 27 10  6172 technosat            
H2  1704205 6203    42829 2021 04 27 00 00 00 2021 05 04 00 00 00    60 1 1  0 0 0
H9
10 0 59332  43200.000000  0      -4816168.329       5045973.654       -301339.417
10 0 59332  43260.000000  0      -4727834.551       5082792.489       -749347.294
10 0 59332  43320.000000  0      -4619415.057       5097398.125      -1194184.117
10 0 59332  43380.000000  0      -4491563.034       5089558.825      -1633968.121
10 0 59332  43440.000000  0      -4345015.341       5059143.909      -2066839.512
10 0 59332  43500.000000  0      -4180588.433       5006124.935      -2490968.591
10 0 59332  43560.000000  0      -3999173.848       4930576.320      -2904563.605
10 0 59332  43620.000000  0      -3801733.364       4832675.496      -3305878.401
10 0 59332  43680.000000  0      -3589293.874       4712702.547      -3693219.782
10 0 59332  43740.000000  0      -3362942.024       4571039.399      -4064954.607
10 0 59332  43800.000000  0      -3123818.619       4408168.515      -4419516.610
10 0 59332  43860.000000  0      -2873112.819       4224671.119      -4755412.827
10 0 59332  43920.000000  0      -2612056.255       4021225.068      -5071229.685
10 0 59332  43980.000000  0      -2341916.992       3798602.260      -5365638.837
10 0 59332  44040.000000  0      -2063993.350       3557665.581      -5637402.585
10 0 59332  44100.000000  0      -1779607.659       3299365.421      -5885378.901
10 0 59332  44160.000000  0      -1490099.967       3024735.797      -6108526.021
10 0 59332  44220.000000  0      -1196821.738       2734890.081      -6305906.584
10 0 59332  44280.000000  0       -901129.589       2431016.412      -6476691.281
10 0 59332  44340.000000  0       -604379.102       2114372.851      -6620162.113
10 0 59332  44400.000000  0       -307918.675       1786282.163      -6735715.238
10 0 59332  44460.000000  0        -13083.534       1448126.291      -6822863.305
10 0 59332  44520.000000  0        278810.145       1101340.645      -6881237.424
10 0 59332  44580.000000  0        566471.059        747408.127      -6910588.714
10 0 59332  44640.000000  0        848638.461        387852.867      -6910789.362
10 0 59332  44700.000000  0       1124087.629         24233.713      -6881833.151
10 0 59332  44760.000000  0       1391635.110       -341862.424      -6823835.509
10 0 59332  44820.000000  0       1650143.720       -708827.338      -6737033.121
10 0 59332  44880.000000  0       1898527.325      -1075038.464      -6621783.176
10 0 59332  44940.000000  0       2135755.449      -1438865.966      -6478562.118
10 0 59332  45000.000000  0       2360857.583      -1798679.885      -6307963.850
10 0 59332  45060.000000  0       2572927.168      -2152857.312      -6110697.598
10 0 59332  45120.000000  0       2771125.348      -2499789.717      -5887585.377
10 0 59332  45180.000000  0       2954684.467      -2837890.361      -5639558.918
10 0 59332  45240.000000  0       3122911.220      -3165601.713      -5367656.028
10 0 59332  45300.000000  0       3275189.407      -3481402.742      -5073016.415
10 0 59332  45360.000000  0       3410982.268      -3783816.057      -4756877.118
10 0 59332  45420.000000  0       3529834.466      -4071414.918      -4420567.569
10 0 59332  45480.000000  0       3631373.734      -4342830.150      -4065504.280
10 0 59332  45540.000000  0       3715312.140      -4596756.884      -3693185.060
10 0 59332  45600.000000  0       3781446.979      -4831961.067      -3305182.859
10 0 59332  45660.000000  0       3829661.259      -5047285.783      -2903139.193
10 0 59332  45720.000000  0       3859923.698      -5241657.256      -2488757.148
10 0 59332  45780.000000  0       3872288.258      -5414090.411      -2063794.032
10 0 59332  45840.000000  0       3866893.306      -5563694.009      -1630053.841
10 0 59332  45900.000000  0       3843960.385      -5689675.489      -1189379.440
10 0 59332  45960.000000  0       3803792.510      -5791345.314       -743644.453
10 0 59332  46020.000000  0       3746772.017      -5868120.773       -294744.998
10 0 59332  46080.000000  0       3673358.012      -5919529.275        155408.656
10 0 59332  46140.000000  0       3584083.448      -5945211.142        604900.486
10 0 59332  46200.000000  0       3479551.900      -5944921.859       1051817.196
10 0 59332  46260.000000  0       3360433.958      -5918533.754       1494256.781
10 0 59332  46320.000000  0       3227463.182      -5866036.953       1930337.004
10 0 59332  46380.000000  0       3081431.826      -5787539.784       2358203.598
10 0 59332  46440.000000  0       2923186.299      -5683268.683       2776038.406
10 0 59332  46500.000000  0       2753622.329      -5553567.471       3182067.283
10 0 59332  46560.000000  0       2573680.009      -5398896.084       3574567.767
10 0 59332  46620.000000  0       2384338.677      -5219828.741       3951876.489
10 0 59332  46680.000000  0       2186611.598      -5017051.583       4312396.329
10 0 59332  46740.000000  0       1981540.517      -4791359.703       4654603.176
10 0 59332  46800.000000  0       1770190.223      -4543653.704       4977052.252
10 0 59332  46860.000000  0       1553643.070      -4274935.864       5278384.184
10 0 59332  46920.000000  0       1332993.379      -3986305.710       5557330.669
10 0 59332  46980.000000  0       1109341.865      -3678955.151       5812719.582
10 0 59332  47040.000000  0        883790.145      -3354163.247       6043479.619
10 0 59332  47100.000000  0        657435.348      -3013290.651       6248644.472
10 0 59332  47160.000000  0        431364.815      -2657773.731       6427356.603
10 0 59332  47220.000000  0        206650.932      -2289118.326       6578870.523
10 0 59332  47280.000000  0        -15653.856      -1908893.297       6702555.577
10 0 59332  47340.000000  0       -234521.906      -1518723.843       6797898.391
10 0 59332  47400.000000  0       -448955.068      -1120284.468       6864504.827
10 0 59332  47460.000000  0       -657989.138       -715291.756       6902101.389
10 0 59332  47520.000000  0       -860698.120       -305497.004       6910536.200
10 0 59332  47580.000000  0      -1056198.285        107321.316       6889779.471
10 0 59332  47640.000000  0      -1243651.949        521365.210       6839923.520
10 0 59332  47700.000000  0      -1422270.995        934824.926       6761182.302
10 0 59332  47760.000000  0      -1591320.124       1345886.745       6653890.497
10 0 59332  47820.000000  0      -1750119.867       1752740.859       6518502.158
10 0 59332  47880.000000  0      -1898049.280       2153589.255       6355588.851
10 0 59332  47940.000000  0      -2034548.337       2546653.589       6165837.402
10 0 59332  48000.000000  0      -2159120.040       2930183.064       5950047.117
10 0 59332  48060.000000  0      -2271332.165       3302462.152       5709126.599
10 0 59332  48120.000000  0      -2370818.760       3661818.286       5444090.211
10 0 59332  48180.000000  0      -2457281.334       4006629.469       5156054.003
10 0 59332  48240.000000  0      -2530489.674       4335331.679       4846231.205
10 0 59332  48300.000000  0      -2590282.335       4646426.093       4515927.309
10 0 59332  48360.000000  0      -2636566.790       4938486.068       4166534.748
10 0 59332  48420.000000  0      -2669319.254       5210163.875       3799527.150
10 0 59332  48480.000000  0      -2688584.137       5460197.095       3416453.200
10 0 59332  48540.000000  0      -2694473.155       5687414.646       3018930.173
10 0 59332  48600.000000  0      -2687164.128       5890742.443       2608637.172
10 0 59332  48660.000000  0      -2666899.448       6069208.674       2187308.050
10 0 59332  48720.000000  0      -2633984.209       6221948.631       1756724.042
10 0 59332  48780.000000  0      -2588784.011       6348209.040       1318706.185
10 0 59332  48840.000000  0      -2531722.461       6447351.921        875107.533
10 0 59332  48900.000000  0      -2463278.401       6518857.921        427805.183
10 0 59332  48960.000000  0      -2383982.852       6562329.074        -21307.816
10 0 59332  49020.000000  0      -2294415.722       6577491.031       -470330.634
10 0 59332  49080.000000  0      -2195202.278       6564194.726       -917362.953
10 0 59332  49140.000000  0      -2087009.370       6522417.380      -1360513.324
10 0 59332  49200.000000  0      -1970541.378       6452262.747      -1797907.475
10 0 59332  49260.000000  0      -1846536.051       6353960.719      -2227696.298
10 0 59332  49320.000000  0      -1715760.216       6227866.451      -2648063.731
10 0 59332  49380.000000  0      -1579005.390       6074458.927      -3057234.423
10 0 59332  49440.000000  0      -1437083.327       5894339.008      -3453481.271
10 0 59332  49500.000000  0      -1290821.505       5688226.863      -3835132.755
10 0 59332  49560.000000  0      -1141058.569       5456958.808      -4200579.959
10 0 59332  49620.000000  0       -988639.772       5201483.645      -4548283.235
10 0 59332  49680.000000  0       -834412.443       4922858.583      -4876778.546
10 0 59332  49740.000000  0       -679221.492       4622244.665      -5184683.519
10 0 59332  49800.000000  0       -523904.962       4300901.738      -5470703.119
10 0 59332  49860.000000  0       -369289.678       3960182.966      -5733634.943
10 0 59332  49920.000000  0       -216186.983       3601528.943      -5972374.074
10 0 59332  49980.000000  0        -65388.638       3226461.423      -6185917.497
10 0 59332  50040.000000  0         82337.120       2836576.737      -6373368.031
10 0 59332  50100.000000  0        226249.335       2433538.969      -6533937.825
10 0 59332  50160.000000  0        365637.923       2019072.920      -6666951.479
10 0 59332  50220.000000  0        499827.086       1594956.749      -6771848.786
10 0 59332  50280.000000  0        628178.496       1163014.349      -6848186.912
10 0 59332  50340.000000  0        750094.257        725107.633      -6895642.119
99
